     4.00           N: GNSS NAV DATA    M: MIXED            RINEX VERSION / TYPE
sbf2rin-15.4.0                          20220727 122451 UTC PGM / RUN BY / DATE 
    18                                                      LEAP SECONDS        
                                                            END OF HEADER       
S44 2022 06 08 10 10 08-7.026828825474E-07 0.000000000000E+00 2.958320000000E+05
     7.236243680000E+03-1.739375000000E-03 1.875000000000E-07 6.300000000000E+01
     4.150911416000E+04 3.037500000000E-03 0.000000000000E+00 3.276700000000E+04
     1.029154400000E+03-8.320800000000E-02-2.750000000000E-06 6.000000000000E+01
> EPH S27 SBAS
S27 2022 06 08 10 11 12 1.434236764908E-07-3.092281986028E-11 2.958460000000E+05
     2.413688520000E+04 1.584375000000E-03 1.250000000000E-08 3.100000000000E+01
     3.458615672000E+04-6.125000000000E-04-8.750000000000E-08 4.096000000000E+03
     3.048000000000E+00-1.428000000000E-03 0.000000000000E+00 2.410000000000E+02
> EPH S36 SBAS
S36 2022 06 08 10 10 40 0.000000000000E+00 0.000000000000E+00 2.958550000000E+05
     4.200368800000E+04 0.000000000000E+00 0.000000000000E+00 6.300000000000E+01
     3.674846960000E+03 0.000000000000E+00 0.000000000000E+00 3.276700000000E+04
     0.000000000000E+00 0.000000000000E+00 0.000000000000E+00 2.600000000000E+01
> EPH S48 SBAS
S48 2022 06 08 10 10 56 0.000000000000E+00 0.000000000000E+00 2.958760000000E+05
     3.047394272000E+04-3.818750000000E-04 0.000000000000E+00 3.100000000000E+01
    -2.913728192000E+04 8.487500000000E-04 0.000000000000E+00 2.000000000000E+00
    -3.892000000000E+00-9.440000000000E-04 0.000000000000E+00 0.000000000000E+00
> EPH S23 SBAS
S23 2022 06 08 10 11 12 0.000000000000E+00 0.000000000000E+00 2.958830000000E+05
     3.594460000000E+04 0.000000000000E+00 0.000000000000E+00 6.300000000000E+01
     2.204414000000E+04 0.000000000000E+00 0.000000000000E+00 3.276700000000E+04
     0.000000000000E+00 0.000000000000E+00 0.000000000000E+00 6.800000000000E+01
> EPH S44 SBAS
S44 2022 06 08 10 12 16-7.026828825474E-07 0.000000000000E+00 2.959520000000E+05
     7.236024240000E+03-1.688750000000E-03 1.875000000000E-07 6.300000000000E+01
     4.150950288000E+04 3.035625000000E-03 0.000000000000E+00 3.276700000000E+04
     1.018458400000E+03-8.390800000000E-02-2.687500000000E-06 6.000000000000E+01
> EPH S26 SBAS
S26 2022 06 08 10 12 32 0.000000000000E+00 0.000000000000E+00 2.959670000000E+05
     1.848266400000E+04 0.000000000000E+00 0.000000000000E+00 6.300000000000E+01
     3.789508000000E+04 0.000000000000E+00 0.000000000000E+00 3.276700000000E+04
     0.000000000000E+00 0.000000000000E+00 0.000000000000E+00 1.140000000000E+02
> EPH S36 SBAS
S36 2022 06 08 10 12 48 0.000000000000E+00 0.000000000000E+00 2.959830000000E+05
     4.200368800000E+04 0.000000000000E+00 0.000000000000E+00 6.300000000000E+01
     3.674846960000E+03 0.000000000000E+00 0.000000000000E+00 3.276700000000E+04
     0.000000000000E+00 0.000000000000E+00 0.000000000000E+00 2.700000000000E+01
> EPH S48 SBAS
S48 2022 06 08 10 12 00 0.000000000000E+00 0.000000000000E+00 2.959960000000E+05
     3.047391848000E+04-3.756250000000E-04 0.000000000000E+00 3.100000000000E+01
    -2.913722744000E+04 8.537500000000E-04 0.000000000000E+00 2.000000000000E+00
    -3.952400000000E+00-9.440000000000E-04 0.000000000000E+00 0.000000000000E+00
> EPH S23 SBAS
S23 2022 06 08 10 13 20 0.000000000000E+00 0.000000000000E+00 2.960110000000E+05
     3.594460000000E+04 0.000000000000E+00 0.000000000000E+00 6.300000000000E+01
     2.204414000000E+04 0.000000000000E+00 0.000000000000E+00 3.276700000000E+04
     0.000000000000E+00 0.000000000000E+00 0.000000000000E+00 6.900000000000E+01
> EPH S44 SBAS
S44 2022 06 08 10 14 24-7.026828825474E-07 0.000000000000E+00 2.960720000000E+05
     7.235811200000E+03-1.638750000000E-03 1.875000000000E-07 6.300000000000E+01
     4.150989128000E+04 3.033125000000E-03 0.000000000000E+00 3.276700000000E+04
     1.007674000000E+03-8.459600000000E-02-2.687500000000E-06 6.000000000000E+01
> EPH S27 SBAS
S27 2022 06 08 10 15 28 1.355074346066E-07-2.910383045673E-11 2.961020000000E+05
     2.413729120000E+04 1.595625000000E-03 1.250000000000E-08 3.100000000000E+01
     3.458599704000E+04-6.318750000000E-04-8.750000000000E-08 4.096000000000E+03
     2.682400000000E+00-1.428000000000E-03 0.000000000000E+00 2.420000000000E+02
> EPH S48 SBAS
S48 2022 06 08 10 14 08 0.000000000000E+00 0.000000000000E+00 2.961040000000E+05
     3.047387120000E+04-3.625000000000E-04 0.000000000000E+00 3.100000000000E+01
    -2.913711752000E+04 8.637500000000E-04 0.000000000000E+00 2.000000000000E+00
    -4.073200000000E+00-9.400000000000E-04 0.000000000000E+00 0.000000000000E+00
> EPH S36 SBAS
S36 2022 06 08 10 14 56 0.000000000000E+00 0.000000000000E+00 2.961110000000E+05
     4.200368800000E+04 0.000000000000E+00 0.000000000000E+00 6.300000000000E+01
     3.674846960000E+03 0.000000000000E+00 0.000000000000E+00 3.276700000000E+04
     0.000000000000E+00 0.000000000000E+00 0.000000000000E+00 2.800000000000E+01
> EPH S26 SBAS
S26 2022 06 08 10 15 28 0.000000000000E+00 0.000000000000E+00 2.961370000000E+05
     1.848266400000E+04 0.000000000000E+00 0.000000000000E+00 6.300000000000E+01
     3.789508000000E+04 0.000000000000E+00 0.000000000000E+00 3.276700000000E+04
     0.000000000000E+00 0.000000000000E+00 0.000000000000E+00 1.150000000000E+02
> EPH S23 SBAS
S23 2022 06 08 10 15 28 0.000000000000E+00 0.000000000000E+00 2.961390000000E+05
     3.594460000000E+04 0.000000000000E+00 0.000000000000E+00 6.300000000000E+01
     2.204414000000E+04 0.000000000000E+00 0.000000000000E+00 3.276700000000E+04
     0.000000000000E+00 0.000000000000E+00 0.000000000000E+00 7.000000000000E+01
> EPH S44 SBAS
S44 2022 06 08 10 16 32-7.026828825474E-07 0.000000000000E+00 2.961920000000E+05
     7.235604640000E+03-1.588750000000E-03 1.875000000000E-07 6.300000000000E+01
     4.151027936000E+04 3.029375000000E-03-1.250000000000E-08 3.276700000000E+04
     9.968016000000E+02-8.528000000000E-02-2.625000000000E-06 6.000000000000E+01
> EPH S48 SBAS
S48 2022 06 08 10 16 16 0.000000000000E+00 0.000000000000E+00 2.962240000000E+05
     3.047382560000E+04-3.500000000000E-04 0.000000000000E+00 3.100000000000E+01
    -2.913700632000E+04 8.737500000000E-04 0.000000000000E+00 2.000000000000E+00
    -4.193600000000E+00-9.400000000000E-04 0.000000000000E+00 0.000000000000E+00
> EPH S36 SBAS
S36 2022 06 08 10 17 04 0.000000000000E+00 0.000000000000E+00 2.962390000000E+05
     4.200368800000E+04 0.000000000000E+00 0.000000000000E+00 6.300000000000E+01
     3.674846960000E+03 0.000000000000E+00 0.000000000000E+00 3.276700000000E+04
     0.000000000000E+00 0.000000000000E+00 0.000000000000E+00 2.900000000000E+01
> EPH S23 SBAS
S23 2022 06 08 10 17 36 0.000000000000E+00 0.000000000000E+00 2.962670000000E+05
     3.594460000000E+04 0.000000000000E+00 0.000000000000E+00 6.300000000000E+01
     2.204414000000E+04 0.000000000000E+00 0.000000000000E+00 3.276700000000E+04
     0.000000000000E+00 0.000000000000E+00 0.000000000000E+00 7.100000000000E+01
> EPH S26 SBAS
S26 2022 06 08 10 18 08 0.000000000000E+00 0.000000000000E+00 2.963030000000E+05
     1.848266400000E+04 0.000000000000E+00 0.000000000000E+00 6.300000000000E+01
     3.789508000000E+04 0.000000000000E+00 0.000000000000E+00 3.276700000000E+04
     0.000000000000E+00 0.000000000000E+00 0.000000000000E+00 1.160000000000E+02
> EPH S44 SBAS
S44 2022 06 08 10 18 40-7.026828825474E-07 0.000000000000E+00 2.963120000000E+05
     7.235404480000E+03-1.538125000000E-03 1.875000000000E-07 6.300000000000E+01
     4.151066688000E+04 3.025625000000E-03-1.250000000000E-08 3.276700000000E+04
     9.858424000000E+02-8.595600000000E-02-2.625000000000E-06 6.000000000000E+01
> EPH S48 SBAS
S48 2022 06 08 10 18 24 0.000000000000E+00 0.000000000000E+00 2.963320000000E+05
     3.047378160000E+04-3.368750000000E-04 0.000000000000E+00 3.100000000000E+01
    -2.913689384000E+04 8.831250000000E-04 0.000000000000E+00 2.000000000000E+00
    -4.313200000000E+00-9.360000000000E-04 0.000000000000E+00 0.000000000000E+00
> EPH S27 SBAS
S27 2022 06 08 10 19 44 1.280568540096E-07-2.637534635141E-11 2.963600000000E+05
     2.413770008000E+04 1.586250000000E-03 0.000000000000E+00 3.100000000000E+01
     3.458583240000E+04-6.575000000000E-04-8.750000000000E-08 4.096000000000E+03
     2.316800000000E+00-1.428000000000E-03 0.000000000000E+00 2.430000000000E+02
> EPH S36 SBAS
S36 2022 06 08 10 19 12 0.000000000000E+00 0.000000000000E+00 2.963670000000E+05
     4.200368800000E+04 0.000000000000E+00 0.000000000000E+00 6.300000000000E+01
     3.674846960000E+03 0.000000000000E+00 0.000000000000E+00 3.276700000000E+04
     0.000000000000E+00 0.000000000000E+00 0.000000000000E+00 3.000000000000E+01
> EPH S23 SBAS
S23 2022 06 08 10 19 44 0.000000000000E+00 0.000000000000E+00 2.963950000000E+05
     3.594460000000E+04 0.000000000000E+00 0.000000000000E+00 6.300000000000E+01
     2.204414000000E+04 0.000000000000E+00 0.000000000000E+00 3.276700000000E+04
     0.000000000000E+00 0.000000000000E+00 0.000000000000E+00 7.200000000000E+01
> EPH S44 SBAS
S44 2022 06 08 10 20 48-7.022172212601E-07 0.000000000000E+00 2.964320000000E+05
     7.235210720000E+03-1.488125000000E-03 1.875000000000E-07 6.300000000000E+01
     4.151105392000E+04 3.020625000000E-03-1.250000000000E-08 3.276700000000E+04
     9.747972000000E+02-8.662400000000E-02-2.562500000000E-06 6.000000000000E+01
> EPH S48 SBAS
S48 2022 06 08 10 20 32 0.000000000000E+00 0.000000000000E+00 2.964520000000E+05
     3.047373928000E+04-3.243750000000E-04 0.000000000000E+00 3.100000000000E+01
    -2.913678016000E+04 8.931250000000E-04 0.000000000000E+00 2.000000000000E+00
    -4.432800000000E+00-9.320000000000E-04 0.000000000000E+00 0.000000000000E+00
> EPH S26 SBAS
